{
    "links": {
        "self": "http://www.neowsapp.com/rest/v1/neo/3607964?api_key=iIulBulltgU6a56xZRHN4H3l9WmuAYTsLGpBGhQ2"
    },
    "id": "3607964",
    "neo_reference_id": "3607964",
    "name": "(2012 QC18)",
    "designation": "2012 QC18",
    "nasa_jpl_url": "http://ssd.jpl.nasa.gov/sbdb.cgi?sstr=3607964",
    "absolute_magnitude_h": 23.9,
    "estimated_diameter": {
        "kilometers": {
            "estimated_diameter_min": 0.04411182,
            "estimated_diameter_max": 0.0986370281
        },
        "meters": {
            "estimated_diameter_min": 44.1118199997,
            "estimated_diameter_max": 98.6370281305
        },
        "miles": {
            "estimated_diameter_min": 0.0274098057,
            "estimated_diameter_max": 0.0612901888
        },
        "feet": {
            "estimated_diameter_min": 144.7238235278,
            "estimated_diameter_max": 323.6123073718
        }
    },
    "is_potentially_hazardous_asteroid": false,
    "close_approach_data": [
        {
            "close_approach_date": "2012-09-05",
            "close_approach_date_full": "2012-Sep-05 00:17",
            "epoch_date_close_approach": 1346804220000,
            "relative_velocity": {
                "kilometers_per_second": "6.083245235",
                "kilometers_per_hour": "21899.6828460087",
                "miles_per_hour": "13607.6112661769"
            },
            "miss_distance": {
                "astronomical": "0.0684298542",
                "lunar": "26.6192132838",
                "kilometers": "10236960.432730554",
                "miles": "6360952.2516234852"
            },
            "orbiting_body": "Earth"
        },
        {
            "close_approach_date": "2138-10-19",
            "close_approach_date_full": "2138-Oct-19 19:36",
            "epoch_date_close_approach": 5326803360000,
            "relative_velocity": {
                "kilometers_per_second": "10.0340737121",
                "kilometers_per_hour": "36122.665363646",
                "miles_per_hour": "22445.21948665"
            },
            "miss_distance": {
                "astronomical": "0.0677546179",
                "lunar": "26.3565463631",
                "kilometers": "10135946.520503873",
                "miles": "6298185.1171165274"
            },
            "orbiting_body": "Mars"
        }
    ],
    "orbital_data": {
        "orbit_id": "14",
        "orbit_determination_date": "2017-04-06 08:49:09",
        "first_observation_date": "2012-08-26",
        "last_observation_date": "2012-09-17",
        "data_arc_in_days": 22,
        "observations_used": 65,
        "orbit_uncertainty": "7",
        "minimum_orbit_intersection": ".0679709",
        "jupiter_tisserand_invariant": "3.450",
        "epoch_osculation": "2459000.5",
        "eccentricity": ".5205514573762215",
        "semi_major_axis": "2.230716231712266",
        "inclination": "1.643349821963384",
        "ascending_node_longitude": "224.0346082614139",
        "orbital_period": "1216.928095825572",
        "perihelion_distance": "1.069513646301653",
        "perihelion_argument": "124.777931984624",
        "aphelion_distance": "3.391918817122879",
        "perihelion_time": "2458612.217787628045",
        "mean_anomaly": "114.864302117271",
        "mean_motion": ".2958268456738799",
        "equinox": "J2000",
        "orbit_class": {
            "orbit_class_type": "AMO",
            "orbit_class_description": "Near-Earth asteroid orbits similar to that of 1221 Amor",
            "orbit_class_range": "1.017 AU < q (perihelion) < 1.3 AU"
        }
    },
    "is_sentry_object": false
}